STARLINK-1007           
1 44713U 19074A   20026.91667824  .00090112  00000-0  63891-3 0  9996
2 44713  53.0060 151.1159 0003173  20.6081 157.6281 15.73216236 12031
STARLINK-1008           
1 44714U 19074B   20026.91667824  .00062864  00000-0  44839-3 0  9991
2 44714  53.0064 151.1113 0004130  24.3252 158.1593 15.73217549 12031
STARLINK-1009           
1 44715U 19074C   20026.91667824  .00058590  00000-0  41855-3 0  9998
2 44715  53.0058 151.1012 0003065   9.1925 175.7908 15.73214720 12030
STARLINK-1010           
1 44716U 19074D   20027.25001157  .00587296  00000-0  39184-2 0  9999
2 44716  53.0061 149.4382 0003354  26.3472 250.2152 15.73106857 12080
STARLINK-1011           
1 44717U 19074E   20027.25001157 -.00087203  00000-0 -33933-2 0  9991
2 44717  53.0063 153.6778 0001217  67.7500 355.1615 15.25805236 12023
STARLINK-1012           
1 44718U 19074F   20027.25001157  .00404289  00000-0  27560-2 0  9996
2 44718  53.0060 149.4345 0003341  32.0828 245.3816 15.73131264 12087
STARLINK-1013           
1 44719U 19074G   20026.91667824  .00055221  00000-0  39482-3 0  9993
2 44719  53.0060 151.1002 0002727  24.9751 160.8840 15.73220210 12033
STARLINK-1014           
1 44720U 19074H   20027.25001157 -.00006856  00000-0 -58394-4 0  9990
2 44720  53.0062 149.6614 0005774 277.4648 263.9489 15.66812234 12087
STARLINK-1015           
1 44721U 19074J   20027.25001157  .00819663  00000-0  53304-2 0  9991
2 44721  53.0060 149.4450 0003033  54.5110 218.6912 15.73040926 12083
STARLINK-1016           
1 44722U 19074K   20026.91667824  .00051190  00000-0  36633-3 0  9993
2 44722  53.0059 151.1049 0003324  44.7998 138.5075 15.73228873 12038
STARLINK-1017           
1 44723U 19074L   20027.25001157  .00587723  00000-0  39222-2 0  9995
2 44723  53.0055 149.4506 0005076   3.2211 265.7266 15.73097609 12088
STARLINK-1019           
1 44724U 19074M   20027.25001157  .00785430  00000-0  51233-2 0  9997
2 44724  53.0063 149.4357 0006910  90.4193 187.8552 15.73064701 12086
STARLINK-1020           
1 44725U 19074N   20027.25001157 -.00031434  00000-0 -12725-2 0  9991
2 44725  53.0069 153.6722 0001459  66.3730 204.8087 15.24007155 12021
STARLINK-1021           
1 44726U 19074P   20026.91667824  .00108827  00000-0  76970-3 0  9995
2 44726  53.0063 151.0962 0003781  15.8613 174.2468 15.73192032 12030
STARLINK-1022           
1 44727U 19074Q   20026.91667824  .00030318  00000-0  20911-2 0  9998
2 44727  53.0267 173.9766 0001390  78.2693 303.7788 15.05579557 11711
STARLINK-1023           
1 44728U 19074R   20027.25001157  .00658189  00000-0  43543-2 0  9996
2 44728  53.0062 149.4576 0006780 356.9063 271.2186 15.73095340 12087
STARLINK-1024           
1 44729U 19074S   20027.25001157 -.00069289  00000-0 -26524-2 0  9996
2 44729  53.0071 153.6573 0001250  70.1710  31.0678 15.26233363 12022
STARLINK-1025           
1 44730U 19074T   20027.25001157  .00469987  00000-0  31782-2 0  9997
2 44730  53.0066 149.4574 0006573  13.1616 256.5784 15.73118429 12082
STARLINK-1026           
1 44731U 19074U   20027.25001157  .00365228  00000-0  25003-2 0  9990
2 44731  53.0060 149.4387 0004141  20.5150 255.1808 15.73143897 12082
STARLINK-1027           
1 44732U 19074V   20027.25001157 -.00080178  00000-0 -22134-2 0  9993
2 44732  53.0059 151.7808 0001382  67.5646 129.7308 15.36749726 12050
STARLINK-1028           
1 44733U 19074W   20027.25001157  .00478380  00000-0  32432-2 0  9990
2 44733  53.0060 149.4299 0002447  28.2666 251.6738 15.73045512 12088
STARLINK-1029           
1 44734U 19074X   20026.91667824  .00011099  00000-0  13240-3 0  9999
2 44734  53.0064 152.8695 0001763  52.5058 325.5613 15.61642051 12009
STARLINK-1030           
1 44735U 19074Y   20027.25001157 -.00032388  00000-0 -13062-2 0  9996
2 44735  53.0073 153.6649 0001427  68.7842 215.7085 15.24148104 12029
STARLINK-1031           
1 44736U 19074Z   20027.25001157 -.00063160  00000-0 -24043-2 0  9990
2 44736  53.0066 153.6225 0001212  75.4980  38.4209 15.26374551 12029
STARLINK-1032           
1 44737U 19074AA  20027.25001157 -.00086448  00000-0 -33490-2 0  9991
2 44737  53.0062 153.6216 0001209  72.4884   3.2576 15.25947920 12024
STARLINK-1033           
1 44738U 19074AB  20027.25001157 -.00053843  00000-0 -22247-2 0  9993
2 44738  53.0071 153.7140 0001418  70.5506 160.5130 15.23574310 12024
STARLINK-1052           
1 44739U 19074AC  20027.25001157 -.00035691  00000-0 -14537-2 0  9998
2 44739  53.0062 153.6630 0001459  66.8528 191.0468 15.23865446 12021
STARLINK-1035           
1 44740U 19074AD  20027.25001157 -.00071303  00000-0 -19442-2 0  9990
2 44740  53.0067 152.5989 0001369  70.8194 141.9276 15.37076937 12044
STARLINK-1036           
1 44741U 19074AE  20027.25001157 -.00084574  00000-0 -33033-2 0  9997
2 44741  53.0056 153.6773 0001234  63.5729 346.4831 15.25665706 12022
STARLINK-1037           
1 44742U 19074AF  20027.25001157 -.00078616  00000-0 -31189-2 0  9998
2 44742  53.0054 153.6362 0001173  71.1869 305.1401 15.25110590 12028
STARLINK-1038           
1 44743U 19074AG  20026.91667824  .00033574  00000-0  23121-2 0  9999
2 44743  53.0008 174.4199 0001341  85.7328  44.3068 15.05586479 11712
STARLINK-1039           
1 44744U 19074AH  20026.91667824  .00029518  00000-0  20373-2 0  9999
2 44744  52.9997 174.4247 0001233  90.4010   3.6816 15.05567203 11705
STARLINK-1040           
1 44745U 19074AJ  20026.33309008  .00049897  00000-0  30448-3 0  9990
2 44745  53.0031 152.7488 0004372  70.3559 289.7931 15.76907612 11957
STARLINK-1041           
1 44746U 19074AK  20026.91667824  .00022043  00000-0  15274-2 0  9991
2 44746  53.0008 174.4186 0001105  73.2154  74.7777 15.05577282 11714
STARLINK-1042           
1 44747U 19074AL  20027.25001157  .00044160  00000-0  30310-2 0  9993
2 44747  53.0270 172.5084 0001237  97.5481 274.2768 15.05581219 11767
STARLINK-1043           
1 44748U 19074AM  20026.91667824  .00033804  00000-0  23283-2 0  9999
2 44748  53.0186 174.2898 0001369 106.7569 113.2566 15.05577041  1790
STARLINK-1044           
1 44749U 19074AN  20027.25001157 -.00064507  00000-0 -27502-2 0  9993
2 44749  53.0103 153.4744 0001283  68.1723  68.3746 15.22603361 12029
STARLINK-1045           
1 44750U 19074AP  20027.25001157  .00489635  00000-0  31776-1 0  9993
2 44750  52.9988 172.9300 0001048  85.4619 358.3228 15.05476468 11752
STARLINK-1046           
1 44751U 19074AQ  20026.91667824  .00029982  00000-0  20671-2 0  9993
2 44751  52.9989 174.4218 0001567  94.8774  17.0924 15.05599188 11703
STARLINK-1047           
1 44752U 19074AR  20027.25001157 -.00080691  00000-0 -31757-2 0  9996
2 44752  53.0060 153.6531 0001161  72.1909 312.1134 15.25389615 12024
STARLINK-1048           
1 44753U 19074AS  20027.25001157  .00861549  00000-0  55720-2 0  9990
2 44753  53.0061 149.4597 0002559  29.6827 236.7028 15.73049025 12089
STARLINK-1049           
1 44754U 19074AT  20026.91667824  .00055827  00000-0  39892-3 0  9999
2 44754  53.0062 151.1222 0002755  15.5101 160.9732 15.73229209 12021
STARLINK-1050           
1 44755U 19074AU  20026.91667824  .00017589  00000-0  12241-2 0  9991
2 44755  53.0291 173.9104 0001693  97.5562 320.3486 15.05556986 11711
STARLINK-1051           
1 44756U 19074AV  20026.91667824  .00043179  00000-0  31006-3 0  9997
2 44756  53.0062 151.1232 0002693  39.8030 135.8755 15.73225406 12026
STARLINK-1034           
1 44757U 19074AW  20027.25001157 -.00064208  00000-0 -25719-2 0  9998
2 44757  53.0054 153.6124 0001223  76.1943 260.9094 15.24693061 12028
STARLINK-1053           
1 44758U 19074AX  20026.91667824  .00031323  00000-0  21605-2 0  9990
2 44758  53.0231 174.1619 0001028  92.0722 199.8556 15.05561297 11710
STARLINK-1054           
1 44759U 19074AY  20027.25001157  .00059031  00000-0  40388-2 0  9995
2 44759  53.0266 172.5881 0001309  84.2460 251.5598 15.05562065 11767
STARLINK-1055           
1 44760U 19074AZ  20026.91667824  .00016445  00000-0  11453-2 0  9991
2 44760  53.0245 173.9602 0001136  72.4906 327.5332 15.05576044 11711
STARLINK-1056           
1 44761U 19074BA  20026.91667824  .00031064  00000-0  21426-2 0  9997
2 44761  53.0263 174.0485 0001283 104.1510 241.8603 15.05566493 11716
STARLINK-1057           
1 44762U 19074BB  20027.25001157 -.00070271  00000-0 -28067-2 0  9990
2 44762  53.0057 153.6203 0001193  74.9173 275.3138 15.24831714 12020
STARLINK-1058           
1 44763U 19074BC  20026.91667824  .00034512  00000-0  23778-2 0  9992
2 44763  53.0198 174.2460 0001556 119.1258 118.9823 15.05555944 11715
STARLINK-1059           
1 44764U 19074BD  20027.25001157 -.00074111  00000-0 -29498-2 0  9998
2 44764  53.0053 153.6256 0001169  75.2934 288.0146 15.24972750 12024
STARLINK-1060           
1 44765U 19074BE  20027.25001157 -.00039222  00000-0 -15796-2 0  9999
2 44765  53.0068 153.5790 0001373  72.0619 225.6775 15.24286762 12021
STARLINK-1061           
1 44766U 19074BF  20026.91667824  .00028784  00000-0  19875-2 0  9992
2 44766  53.0224 174.1924 0001078  98.2643 175.6274 15.05564036 11718
STARLINK-1062           
1 44767U 19074BG  20027.25001157  .00516793  00000-0  33426-1 0  9991
2 44767  53.0057 172.6337 0001639  96.1036 221.7766 15.05478101 11761
STARLINK-1063           
1 44768U 19074BH  20027.25001157  .00426833  00000-0  27625-1 0  9991
2 44768  53.0058 172.8792 0001339  79.2633 112.5000 15.05521172 11767
STARLINK-1064           
1 44769U 19074BJ  20027.25001157  .00388983  00000-0  25341-1 0  9998
2 44769  53.0025 172.8980 0001341  89.3424  84.4282 15.05481862 11764
STARLINK-1065           
1 44770U 19074BK  20027.25001157  .00411157  00000-0  26692-1 0  9990
2 44770  53.0029 172.8151 0001029  90.0281 119.7497 15.05491276 11763
STARLINK-1067           
1 44771U 19074BL  20026.91667824  .00030189  00000-0  20829-2 0  9991
2 44771  53.0223 174.2294 0000977  86.6197 169.2961 15.05569065 11715
STARLINK-1068           
1 44772U 19074BM  20027.25001157 -.00055025  00000-0 -22083-2 0  9993
2 44772  53.0062 153.5989 0001277  74.6782 249.3464 15.24558568 12029
